DMSP 5D-3 F16 (USA 172) 
1 28054U 03048A   26183.81970330  .00000009  00000+0  28159-4 0  9992
2 28054  98.9886 207.7511 0008194 101.3623  73.4249 14.14484372171691
METEOSAT-9 (MSG-2)      
1 28912U 05049B   26183.76303862  .00000130  00000+0  00000+0 0  9997
2 28912   9.3943  54.0128 0002567 359.4901 187.7563  1.00267373  7152
DMSP 5D-3 F17 (USA 191) 
1 29522U 06050A   26183.79688071  .00000041  00000+0  43547-4 0  9998
2 29522  98.7380 190.0476 0010476  18.0502 342.1041 14.14995050 14635
FENGYUN 3A              
1 32958U 08026A   26183.83562919  .00000090  00000+0  63361-4 0  9997
2 32958  98.6885 124.3762 0009882  83.5691 276.6610 14.19574446937627
GOES 14                 
1 35491U 09033A   26183.76438565 -.00000329  00000+0  00000+0 0  9994
2 35491   1.7278  82.8660 0002230  26.4183 219.3743  1.00105344  6744
DMSP 5D-3 F18 (USA 210) 
1 35951U 09057A   26183.76926764  .00000282  00000+0  16904-3 0  9995
2 35951  98.9045 164.5050 0010489 201.2830 158.7908 14.14905612861791
EWS-G2 (GOES 15)        
1 36411U 10008A   26183.77836772  .00000031  00000+0  00000+0 0  9993
2 36411   1.3180  82.6370 0005372  46.1849 135.6761  1.00268387 59799
COMS 1                  
1 36744U 10032A   26183.73581844 -.00000089  00000+0  00000+0 0  9996
2 36744   4.8426  75.1736 0011777  13.9183 108.0967  0.99169036 51243
FENGYUN 3B              
1 37214U 10059A   26183.88378674 -.00000186  00000+0 -72940-4 0  9995
2 37214  98.9609 229.9644 0022753 140.0070  32.7198 14.14843237809641
SUOMI NPP               
1 37849U 11061A   26183.84746178  .00000080  00000+0  59113-4 0  9995
2 37849  98.7955 124.6167 0000688 308.4126  51.6988 14.19520596760663
METEOSAT-10 (MSG-3)     
1 38552U 12035B   26183.29748566  .00000001  00000+0  00000+0 0  9990
2 38552   4.7052  60.9470 0001613  15.2569 311.3560  1.00269475 51007
METOP-B                 
1 38771U 12049A   26183.81641536  .00000135  00000+0  81600-4 0  9993
2 38771  98.6496 235.0033 0001303 327.6021  32.5076 14.21443713715482
INSAT-3D                
1 39216U 13038B   26183.85162302 -.00000329  00000+0  00000+0 0  9996
2 39216   1.9642  82.3574 0001056  15.1644 259.4386  1.00268722 47238
FENGYUN 3C              
1 39260U 13052A   26183.87465604  .00000098  00000+0  71027-4 0  9998
2 39260  98.4995 157.0297 0014297 343.0927  16.9769 14.15758647660781
METEOR-M 2              
1 40069U 14037A   26183.91294538  .00000216  00000+0  11820-3 0  9998
2 40069  98.5121 159.0949 0005908   3.7572 356.3649 14.21466338621553
HIMAWARI-8              
1 40267U 14060A   26183.85560351 -.00000265  00000+0  00000+0 0  9995
2 40267   0.0157   5.8561 0001056 102.2100 261.5191  1.00271871 42915
FENGYUN 2G              
1 40367U 14090A   26183.87911138 -.00000293  00000+0  00000+0 0  9995
2 40367   5.6767  72.6316 0003609 150.3036 114.0182  1.00266634 42151
METEOSAT-11 (MSG-4)     
1 40732U 15034A   26183.79834770  .00000071  00000+0  00000+0 0  9990
2 40732   3.2395  71.0127 0002235 349.1023 157.4441  1.00267972  7379
ELEKTRO-L 2             
1 41105U 15074A   26182.93811038 -.00000111  00000+0  00000+0 0  9992
2 41105   6.7296  70.3426 0000516 273.6365 259.1662  1.00271077 38657
SENTINEL-3A             
1 41335U 16011A   26183.78540397  .00000136  00000+0  74151-4 0  9999
2 41335  98.6243 250.9446 0001425  94.5446 265.5897 14.26737056540286
INSAT-3DR               
1 41752U 16054A   26183.45463633 -.00000066  00000+0  00000+0 0  9990
2 41752   0.1421  85.9447 0010094 186.2693 245.9301  1.00272241 35972
HIMAWARI-9              
1 41836U 16064A   26183.69547149 -.00000265  00000+0  00000+0 0  9996
2 41836   0.0302 267.9360 0001438 225.4185 178.4790  1.00268231 35361
GOES 16                 
1 41866U 16071A   26183.70436984 -.00000080  00000+0  00000+0 0  9998
2 41866   0.3771  85.5912 0000562  33.2401 310.7945  1.00272031 35251
FENGYUN 4A              
1 41882U 16077A   26183.89225178 -.00000347  00000+0  00000+0 0  9999
2 41882   2.3605  80.1179 0007924 157.9983 127.7587  1.00275971 35086
CYGFM05                 
1 41884U 16078A   26183.63181250  .00025116  00000+0  33165-3 0  9998
2 41884  34.9557 158.2652 0008068 285.0788  74.9044 15.57329564531160
CYGFM04                 
1 41885U 16078B   26183.87301262  .00035933  00000+0  39010-3 0  9995
2 41885  34.9318 123.5523 0006484 322.0141  38.0127 15.62401888531454
CYGFM02                 
1 41886U 16078C   26183.84296227  .00041508  00000+0  39734-3 0  9995
2 41886  34.9400 117.8213 0007402 325.5178  34.5068 15.65546274531624
CYGFM01                 
1 41887U 16078D   26183.61367890  .00025659  00000+0  32997-3 0  9999
2 41887  34.9387 159.3160 0007978 279.6825  80.2998 15.58029354531118
CYGFM08                 
1 41888U 16078E   26183.29040917  .00031616  00000+0  36529-3 0  9997
2 41888  34.9423 140.6357 0008715 306.3717  53.6204 15.60797506531331
CYGFM07                 
1 41890U 16078G   26183.24860683  .00031773  00000+0  36586-3 0  9992
2 41890  34.9439 129.2429 0007032 318.0003  42.0183 15.60901001531350
CYGFM03                 
1 41891U 16078H   26183.85925427  .00034547  00000+0  39723-3 0  9996
2 41891  34.9396 127.1049 0006872 310.3425  49.6700 15.60926669531425
